KUIPER-00265            
1 67159U 25301AC  26194.34425035  .00000552  00000+0  10147-3 0  9994
2 67159  51.9022 249.9996 0000399 107.9857 252.1149 14.79930046 32096
KUIPER-00159            
1 67764U 26030A   26194.83335647 -.01123610  00000+0 -44593-1 0  9993
2 67764  51.8890 329.6106 0005468 129.1586 243.0916 15.27863748  5231
KUIPER-00160            
1 67765U 26030B   26194.68248360  .00008597  00000+0  24051-3 0  9994
2 67765  51.8816 330.1042 0005885 133.9647 226.1827 15.37468088 24479
KUIPER-00177            
1 67766U 26030C   26194.69631843  .00001787  00000+0  26327-3 0  9990
2 67766  51.9018  15.9227 0000674 123.1492 236.9535 14.79940258 23831
KUIPER-00178            
1 67767U 26030D   26194.79760343  .00001749  00000+0  25832-3 0  9998
2 67767  51.9013  15.4567 0000738 122.1067 237.9967 14.79942920 23857
KUIPER-00180            
1 67768U 26030E   26194.80300544  .00000236  00000+0  59988-4 0  9994
2 67768  51.8995  10.4358 0000698 123.4709 236.6320 14.79931320 23920
KUIPER-00197            
1 67769U 26030F   26194.75704855 -.00000155  00000+0  86851-5 0  9993
2 67769  51.9007 350.6509 0000561 167.5978 192.4998 14.79931163 24194
KUIPER-00198            
1 67770U 26030G   26194.84485034  .00001839  00000+0  27016-3 0  9995
2 67770  51.8999   2.7469 0000616 119.0081 241.0943 14.79926310 24035
KUIPER-00199            
1 67771U 26030H   26194.64127991  .00016222  00000+0  45013-3 0  9998
2 67771  51.8826 332.0380 0010372 146.7215 213.4425 15.37013898 24448
KUIPER-00200            
1 67772U 26030J   26194.86106505  .00001893  00000+0  27770-3 0  9999
2 67772  51.9000 347.7197 0001345  78.3209 281.7905 14.79871899 24243
KUIPER-00203            
1 67773U 26030K   26194.82598922  .00001844  00000+0  27091-3 0  9996
2 67773  51.9077  20.3941 0000827 139.6767 220.4257 14.79930585 23789
KUIPER-00205            
1 67774U 26030L   26194.72856565 -.00002904  00000+0 -35195-3 0  9990
2 67774  51.9022 345.7558 0001034 113.6072 246.4999 14.79948172 24266
KUIPER-00208            
1 67775U 26030M   26194.79396414  .00001223  00000+0  20457-3 0  9996
2 67775  51.8987  12.9122 0008205 118.7862 241.3924 14.76517128 23885
KUIPER-00209            
1 67776U 26030N   26194.70171826  .00000422  00000+0  84304-4 0  9998
2 67776  51.9022  10.9764 0000687 111.7913 248.3122 14.79931842 23909
KUIPER-00213            
1 67777U 26030P   26194.67064664  .00002022  00000+0  29416-3 0  9996
2 67777  51.8980   8.5941 0000646 119.4476 240.6551 14.79930848 23935
KUIPER-00214            
1 67778U 26030Q   26194.70711573  .00001895  00000+0  27746-3 0  9990
2 67778  51.9006   5.9423 0000506 114.7802 245.3213 14.79941029 23972
